SBSS (USA 216)          
1 37168U 10048A   26068.88624904  .00004946  00000+0  24191-3 0  9993
2 37168  97.7474 312.3885 0082264 184.8326 306.5835 15.15724210837421
STARLINK-34959          
1 65246U 25179M   26068.69321126  .00001193  00000+0  86912-4 0  9992
2 65246  97.6022 112.8869 0000519 150.1966 209.9291 15.05647685 31822
